IRIDIUM 135             
1 43070U 17083A   26183.29133341  .00000022  00000+0  76924-6 0  9996
2 43070  86.3974 315.7007 0002092  92.8857 267.2578 14.34217577446314
IRIDIUM 138             
1 43071U 17083B   26183.31670373  .00000029  00000+0  34188-5 0  9993
2 43071  86.3992 315.3878 0002170  88.0591 272.0853 14.34217647446303
IRIDIUM 116             
1 43072U 17083C   26183.28499111  .00000002  00000+0 -64231-5 0  9993
2 43072  86.3973 315.6892 0002158 101.3374 258.8064 14.34217398446338
IRIDIUM 130             
1 43073U 17083D   26183.11373974  .00000047  00000+0  98269-5 0  9990
2 43073  86.3987 316.0373 0002059  98.5331 261.6098 14.34217530446251
IRIDIUM 151             
1 43074U 17083E   26183.29767562  .00000061  00000+0  14695-4 0  9996
2 43074  86.3979 315.7417 0002236  93.9612 266.1839 14.34217949446309
IRIDIUM 134             
1 43075U 17083F   26183.12642471  .00000164  00000+0  51517-4 0  9998
2 43075  86.3982 315.8214 0002183  95.0663 265.0782 14.34217843446241
IRIDIUM 137             
1 43076U 17083G   26183.27864880  .00000035  00000+0  54025-5 0  9990
2 43076  86.3982 315.8509 0002594  99.1158 261.0331 14.34217730446330
IRIDIUM 141             
1 43077U 17083H   26183.13276835  .00000043  00000+0  83545-5 0  9991
2 43077  86.3978 315.7417 0002207  91.6408 268.5040 14.34217741446318
IRIDIUM 153             
1 43078U 17083J   26183.29425240  .00000062  00000+0  15023-4 0  9991
2 43078  86.3968 284.1550 0002151  91.8830 268.2612 14.34217915447444
IRIDIUM 131             
1 43079U 17083K   26183.12008322  .00000154  00000+0  47846-4 0  9992
2 43079  86.3984 315.9339 0002244  93.1597 266.9856 14.34218167446241
IRIDIUM 144             
1 43249U 18030A   26183.30059483  .00000131  00000+0  39739-4 0  9995
2 43249  86.3965 284.0810 0002264  98.1358 262.0094 14.34217542432300
IRIDIUM 149             
1 43250U 18030B   26183.30693828 -.00000003  00000+0 -79767-5 0  9990
2 43250  86.3959 284.0450 0002187  93.8553 266.2893 14.34217400432326
IRIDIUM 157             
1 43251U 18030C   26183.25619700  .00000199  00000+0  64136-4 0  9999
2 43251  86.3964 284.1196 0002223  94.4912 265.6538 14.34218344432291
IRIDIUM 140             
1 43252U 18030D   26183.27522507  .00000082  00000+0  22105-4 0  9991
2 43252  86.3965 284.1245 0002199  95.3567 264.7879 14.34217705432351
IRIDIUM 145             
1 43253U 18030E   26183.26252851  .00000260  00000+0  85712-4 0  9994
2 43253  86.3963 284.1019 0002277 103.3383 256.8067 14.34216218432283
IRIDIUM 146             
1 43254U 18030F   26183.31328056  .00000230  00000+0  75241-4 0  9995
2 43254  86.3966 284.0929 0002277  98.4664 261.6790 14.34218506432304
IRIDIUM 148             
1 43255U 18030G   26183.28156812  .00000006  00000+0 -48918-5 0  9995
2 43255  86.3963 284.1497 0002249  95.3831 264.7622 14.34217432432332
IRIDIUM 142             
1 43256U 18030H   26183.24985448  .00000027  00000+0  26366-5 0  9992
2 43256  86.3958 284.0512 0002184  99.2834 260.8609 14.34217714432298
IRIDIUM 150             
1 43257U 18030J   26183.28791019  .00000179  00000+0  56934-4 0  9997
2 43257  86.3966 284.1522 0002190  96.3507 263.7938 14.34218071432320
IRIDIUM 143             
1 43258U 18030K   26183.26887840  .00000270  00000+0  89466-4 0  9992
2 43258  86.3970 284.2532 0002250  98.5572 261.5879 14.34217275432258
IRIDIUM 161             
1 43478U 18047C   26183.21378673  .00000376  00000+0  10567-3 0  9990
2 43478  86.4476  82.1884 0002445  80.0473 280.1004 14.43280827427301
IRIDIUM 152             
1 43479U 18047D   26183.10207108 -.00000408  00000+0 -15273-3 0  9990
2 43479  86.3952  82.0961 0002166  80.1452 279.9989 14.34213047424623
IRIDIUM 147             
1 43480U 18047E   26183.24793768  .00000246  00000+0  80609-4 0  9993
2 43480  86.3953  82.0407 0002219  87.3401 272.8049 14.34220257424645
IRIDIUM 110             
1 43481U 18047F   26183.25428569  .00000058  00000+0  13522-4 0  9990
2 43481  86.3954  82.1303 0002373  76.6032 283.5428 14.34217861424631
IRIDIUM 162             
1 43482U 18047G   26183.27681337  .00000360  00000+0  10098-3 0  9997
2 43482  86.4473  82.0527 0002226  83.2076 276.9378 14.43282520427306
IRIDIUM 160             
1 43569U 18061A   26183.13035251  .00000021  00000+0  58969-6 0  9998
2 43569  86.3948  50.5479 0002141  85.6540 274.4900 14.34217685415516
IRIDIUM 166             
1 43570U 18061B   26183.15572302  .00000226  00000+0  73510-4 0  9999
2 43570  86.3948  50.4880 0002205  88.7233 271.4215 14.34218291415540
IRIDIUM 158             
1 43571U 18061C   26183.12400997  .00000014  00000+0 -21096-5 0  9996
2 43571  86.3943  50.5107 0002004  84.1025 276.0399 14.34217456415507
IRIDIUM 165             
1 43572U 18061D   26183.14938037  .00000065  00000+0  16220-4 0  9997
2 43572  86.3949  50.5471 0002157  90.0099 270.1344 14.34217846415535
IRIDIUM 155             
1 43573U 18061E   26183.18109275  .00000014  00000+0 -21143-5 0  9992
2 43573  86.3944  50.4018 0001919  85.5200 274.6215 14.34217654415505
