OBJECT_NAME,OBJECT_ID,EPOCH,MEAN_MOTION,ECCENTRICITY,INCLINATION,RA_OF_ASC_NODE,ARG_OF_PERICENTER,MEAN_ANOMALY,EPHEMERIS_TYPE,CLASSIFICATION_TYPE,NORAD_CAT_ID,ELEMENT_SET_NO,REV_AT_EPOCH,BSTAR,MEAN_MOTION_DOT,MEAN_MOTION_DDOT
IRIDIUM 135,2017-083A,2026-07-02T06:59:31.206624,14.34217577,.00020924,86.3974,315.7007,92.8857,267.2578,0,U,43070,999,44631,.769242E-6,.22E-6,0
IRIDIUM 138,2017-083B,2026-07-02T07:36:03.202272,14.34217647,.00021701,86.3992,315.3878,88.0591,272.0853,0,U,43071,999,44630,.3418844E-5,.29E-6,0
IRIDIUM 116,2017-083C,2026-07-02T06:50:23.231904,14.34217398,.00021588,86.3973,315.6892,101.3374,258.8064,0,U,43072,999,44633,-.6423053E-5,.2E-7,0
IRIDIUM 130,2017-083D,2026-07-02T02:43:47.113536,14.34217530,.00020593,86.3987,316.0373,98.5331,261.6098,0,U,43073,999,44625,.9826922E-5,.47E-6,0
IRIDIUM 151,2017-083E,2026-07-02T07:08:39.173568,14.34217949,.00022369,86.3979,315.7417,93.9612,266.1839,0,U,43074,999,44630,.14694779E-4,.61E-6,0
IRIDIUM 134,2017-083F,2026-07-02T03:02:03.094944,14.34217843,.00021831,86.3982,315.8214,95.0663,265.0782,0,U,43075,999,44624,.51516951E-4,.164E-5,0
IRIDIUM 137,2017-083G,2026-07-02T06:41:15.256320,14.34217730,.0002594,86.3982,315.8509,99.1158,261.0331,0,U,43076,999,44633,.540251E-5,.35E-6,0
IRIDIUM 141,2017-083H,2026-07-02T03:11:11.185440,14.34217741,.0002207,86.3978,315.7417,91.6408,268.5040,0,U,43077,999,44631,.8354483E-5,.43E-6,0
IRIDIUM 153,2017-083J,2026-07-02T07:03:43.407360,14.34217915,.00021519,86.3968,284.1550,91.8830,268.2612,0,U,43078,999,44744,.15023235E-4,.62E-6,0
IRIDIUM 131,2017-083K,2026-07-02T02:52:55.190208,14.34218167,.0002244,86.3984,315.9339,93.1597,266.9856,0,U,43079,999,44624,.47845696E-4,.154E-5,0
IRIDIUM 144,2018-030A,2026-07-02T07:12:51.393312,14.34217542,.00022647,86.3965,284.0810,98.1358,262.0094,0,U,43249,999,43230,.39739249E-4,.131E-5,0
IRIDIUM 149,2018-030B,2026-07-02T07:21:59.467392,14.34217400,.0002187,86.3959,284.0450,93.8553,266.2893,0,U,43250,999,43232,-.7976747E-5,-.3E-7,0
IRIDIUM 157,2018-030C,2026-07-02T06:08:55.420800,14.34218344,.00022237,86.3964,284.1196,94.4912,265.6538,0,U,43251,999,43229,.64135964E-4,.199E-5,0
IRIDIUM 140,2018-030D,2026-07-02T06:36:19.446048,14.34217705,.0002199,86.3965,284.1245,95.3567,264.7879,0,U,43252,999,43235,.22104965E-4,.82E-6,0
IRIDIUM 145,2018-030E,2026-07-02T06:18:02.463264,14.34216218,.00022775,86.3963,284.1019,103.3383,256.8067,0,U,43253,999,43228,.8571151E-4,.26E-5,0
IRIDIUM 146,2018-030F,2026-07-02T07:31:07.440384,14.34218506,.00022774,86.3966,284.0929,98.4664,261.6790,0,U,43254,999,43230,.75241258E-4,.23E-5,0
IRIDIUM 148,2018-030G,2026-07-02T06:45:27.485568,14.34217432,.00022491,86.3963,284.1497,95.3831,264.7622,0,U,43255,999,43233,-.4891798E-5,.6E-7,0
IRIDIUM 142,2018-030H,2026-07-02T05:59:47.427072,14.34217714,.0002184,86.3958,284.0512,99.2834,260.8609,0,U,43256,999,43229,.2636588E-5,.27E-6,0
IRIDIUM 150,2018-030J,2026-07-02T06:54:35.440416,14.34218071,.00021904,86.3966,284.1522,96.3507,263.7938,0,U,43257,999,43232,.5693361E-4,.179E-5,0
IRIDIUM 143,2018-030K,2026-07-02T06:27:11.093760,14.34217275,.00022509,86.3970,284.2532,98.5572,261.5879,0,U,43258,999,43225,.89465903E-4,.27E-5,0
IRIDIUM 161,2018-047C,2026-07-02T05:07:51.173472,14.43280827,.00024457,86.4476,82.1884,80.0473,280.1004,0,U,43478,999,42730,.10566855E-3,.376E-5,0
IRIDIUM 152,2018-047D,2026-07-02T02:26:58.941312,14.34213047,.00021669,86.3952,82.0961,80.1452,279.9989,0,U,43479,999,42462,-.15272563E-3,-.408E-5,0
IRIDIUM 147,2018-047E,2026-07-02T05:57:01.815552,14.34220257,.00022195,86.3953,82.0407,87.3401,272.8049,0,U,43480,999,42464,.80609127E-4,.246E-5,0
IRIDIUM 110,2018-047F,2026-07-02T06:06:10.283616,14.34217861,.00023736,86.3954,82.1303,76.6032,283.5428,0,U,43481,999,42463,.13522472E-4,.58E-6,0
IRIDIUM 162,2018-047G,2026-07-02T06:38:36.675168,14.43282520,.00022262,86.4473,82.0527,83.2076,276.9378,0,U,43482,999,42730,.10097754E-3,.36E-5,0
IRIDIUM 160,2018-061A,2026-07-02T03:07:42.456864,14.34217685,.00021413,86.3948,50.5479,85.6540,274.4900,0,U,43569,999,41551,.58969E-6,.21E-6,0
IRIDIUM 166,2018-061B,2026-07-02T03:44:14.468928,14.34218291,.00022051,86.3948,50.4880,88.7233,271.4215,0,U,43570,999,41554,.73510017E-4,.226E-5,0
IRIDIUM 158,2018-061C,2026-07-02T02:58:34.461408,14.34217456,.0002004,86.3943,50.5107,84.1025,276.0399,0,U,43571,999,41550,-.2109631E-5,.14E-6,0
IRIDIUM 165,2018-061D,2026-07-02T03:35:06.463968,14.34217846,.00021578,86.3949,50.5471,90.0099,270.1344,0,U,43572,999,41553,.16219786E-4,.65E-6,0
IRIDIUM 155,2018-061E,2026-07-02T04:20:46.413600,14.34217654,.00019196,86.3944,50.4018,85.5200,274.6215,0,U,43573,999,41550,-.2114256E-5,.14E-6,0
